[{"OBJECT_NAME":"STARLINK-2469","OBJECT_ID":"2021-027AN","EPOCH":"2026-03-09T09:17:04.188192","MEAN_MOTION":15.1882832,"ECCENTRICITY":0.0001315,"INCLINATION":53.1065,"RA_OF_ASC_NODE":102.3811,"ARG_OF_PERICENTER":92.2024,"MEAN_ANOMALY":267.9122,"EPHEMERIS_TYPE":0,"CLASSIFICATION_TYPE":"U","NORAD_CAT_ID":48128,"ELEMENT_SET_NO":999,"REV_AT_EPOCH":27335,"BSTAR":0.0010578489,"MEAN_MOTION_DOT":0.00022048,"MEAN_MOTION_DDOT":0},{"OBJECT_NAME":"OBJECT B","OBJECT_ID":"2024-105B","EPOCH":"2026-03-09T23:14:43.984032","MEAN_MOTION":15.17318063,"ECCENTRICITY":0.00110488,"INCLINATION":97.5903,"RA_OF_ASC_NODE":84.1254,"ARG_OF_PERICENTER":221.685,"MEAN_ANOMALY":138.3542,"EPHEMERIS_TYPE":0,"CLASSIFICATION_TYPE":"U","NORAD_CAT_ID":59918,"ELEMENT_SET_NO":999,"REV_AT_EPOCH":9799,"BSTAR":0.00069707648,"MEAN_MOTION_DOT":0.00013867,"MEAN_MOTION_DDOT":0}]
